GLOBALSTAR M097         
1 39072U 13005A   23354.57534297 -.00000097  00000+0  37269-4 0  9996
2 39072  52.0032 132.2843 0001288 115.1377 244.9623 12.62273618502030
GLOBALSTAR M093         
1 39073U 13005B   23355.49897769 -.00000091  00000+0  73059-4 0  9996
2 39073  51.9802 123.6451 0001407 122.9650 237.1352 12.62278418502223
GLOBALSTAR M094         
1 39074U 13005C   23354.94490421 -.00000090  00000+0  78695-4 0  9990
2 39074  51.9977  39.1738 0000581 137.4146 222.6766 12.62270437503669
GLOBALSTAR M096         
1 39075U 13005D   23354.56232768 -.00000092  00000+0  66577-4 0  9995
2 39075  52.0082  88.4277 0001011 124.8336 235.2626 12.62267037502514
GLOBALSTAR M078         
1 39076U 13005E   23354.77335089 -.00000098  00000+0  33394-4 0  9996
2 39076  51.9846 173.0349 0001880  73.0299 287.0774 12.62264718501161
GLOBALSTAR M095         
1 39077U 13005F   23354.79966673 -.00000090  00000+0  79155-4 0  9995
2 39077  51.9771 170.4216 0001821  90.9717 269.1358 12.62272101501020
AMAZONAS 3              
1 39078U 13006A   23354.98174324 -.00000272  00000+0  00000+0 0  9992
2 39078   0.0419 177.3510 0004769  70.7717 133.6215  1.00270478 39857
AZERSPACE 1             
1 39079U 13006B   23355.10250056  .00000143  00000+0  00000+0 0  9991
2 39079   0.0193  59.4000 0001274 216.9316 255.9613  1.00270389 39815
LANDSAT 8               
1 39084U 13008A   23355.45892025  .00000675  00000+0  15985-3 0  9997
2 39084  98.2073  62.8825 0001310  86.6478 273.4870 14.57111749577381
SARAL                   
1 39086U 13009A   23355.46250315  .00000244  00000+0  10649-3 0  9995
2 39086  98.5451 178.0742 0002977  91.7832 268.3693 14.32314745565494
SAPPHIRE                
1 39088U 13009C   23355.10848919  .00000246  00000+0  10195-3 0  9999
2 39088  98.4075 181.6108 0012471  77.1027 283.1551 14.34570167566221
NEOSSAT                 
1 39089U 13009D   23354.50935733  .00000324  00000+0  12869-3 0  9991
2 39089  98.4017 181.5957 0012328  78.7945 281.4626 14.35010081566236
STRAND-1                
1 39090U 13009E   23354.50058986  .00000529  00000+0  19718-3 0  9996
2 39090  98.3795 182.7374 0009967  71.0599 289.1667 14.35815428566454
BRITE-AUSTRIA           
1 39091U 13009F   23355.49390336  .00000393  00000+0  15077-3 0  9997
2 39091  98.3831 182.9569 0011500  74.6963 285.5493 14.35633605566636
SBIRS GEO-2 (USA 241)   
1 39120U 13011A   23355.44389091 -.00000249  00000+0  00000+0 0  9991
2 39120   2.6608  43.4985 0002378 224.9059 303.1489  1.00271264 39477
EUTELSAT 117 WEST A     
1 39122U 13012A   23354.99850503 -.00000003  00000+0  00000+0 0  9992
2 39122   0.0153  27.4598 0002974 241.2666  63.2487  1.00270961 39347
ANIK G1                 
1 39127U 13014A   23355.41577361 -.00000062  00000+0  00000+0 0  9990
2 39127   0.0357 279.0664 0002918 350.7822 222.3050  1.00259871 39133
BEESAT-3                
1 39135U 13015F   23355.46799993  .01016443  51159-3  20397-2 0  9991
2 39135  64.8360  53.5143 0011304 328.6176  31.4314 15.99407593591556
BEESAT-2                
1 39136U 13015G   23355.42143498  .00252147  00000+0  18388-2 0  9995
2 39136  64.8553  72.5270 0015519 282.0033  77.9381 15.72130218591209
GAOFEN-1                
1 39150U 13018A   23355.48939876  .00001246  00000+0  18597-3 0  9998
2 39150  98.0116  64.5683 0019049 312.6758  47.2846 14.76489218574199
NEE-01 PEGASO           
1 39151U 13018B   23355.30610847  .00004146  00000+0  50227-3 0  9992
2 39151  98.0218 106.1214 0014463 262.2598  97.6974 14.84120684575430
COSMOS 2485 [GLONASS-M] 
1 39155U 13019A   23354.48760599  .00000005  00000+0  00000+0 0  9995
2 39155  64.9724 104.2408 0023328 229.1389 130.6536  2.13101558 82895
CHINASAT 11 (ZX 11)     
1 39157U 13020A   23354.85987344 -.00000280  00000+0  00000+0 0  9995
2 39157   0.0196   4.7546 0003513 289.0210 202.8567  1.00266927 38782
PROBA-V                 
1 39159U 13021A   23355.50517879  .00000154  00000+0  86000-4 0  9991
2 39159  98.3114   6.9607 0002967 277.0859  82.9983 14.23189567551843
VNREDSAT 1              
1 39160U 13021B   23355.44836150  .00001121  00000+0  22714-3 0  9998
2 39160  98.0214  62.4523 0001502 100.2570 259.8801 14.63101102567314
ESTCUBE 1               
1 39161U 13021C   23355.14405823  .00002840  00000+0  42637-3 0  9990
2 39161  97.8529  62.0161 0010470  88.9195 271.3214 14.75273281570721
EUTELSAT 7B             
1 39163U 13022A   23354.87986840  .00000057  00000+0  00000+0 0  9997
2 39163   0.0660 351.6962 0004416 328.6789  92.5715  1.00269410 38841
NAVSTAR 68 (USA 242)    
1 39166U 13023A   23353.77539858 -.00000064  00000+0  00000+0 0  9991
2 39166  55.2696 305.8434 0118789  41.7812 319.1185  2.00563973 77629
WGS F5 (USA 243)        
1 39168U 13024A   23355.44101916 -.00000274  00000+0  00000+0 0  9993
2 39168   0.0188  11.1296 0000438 256.0000 288.8772  1.00269269 38710
SES-6                   
1 39172U 13026A   23355.44336878 -.00000251  00000+0  00000+0 0  9992
2 39172   0.0303 317.4836 0002543 299.6280 311.7502  1.00271249 38604
COSMOS 2486             
1 39177U 13028A   23355.49388307  .00000443  00000+0  11221-3 0  9991
2 39177  97.9140 349.0341 0010472 335.8954  24.1752 14.55188096559179
