OBJECT_NAME,OBJECT_ID,EPOCH,MEAN_MOTION,ECCENTRICITY,INCLINATION,RA_OF_ASC_NODE,ARG_OF_PERICENTER,MEAN_ANOMALY,EPHEMERIS_TYPE,CLASSIFICATION_TYPE,NORAD_CAT_ID,ELEMENT_SET_NO,REV_AT_EPOCH,BSTAR,MEAN_MOTION_DOT,MEAN_MOTION_DDOT
GLOBALSTAR M097,2013-005A,2023-12-20T13:48:29.632608,12.62273618,0.0001288,52.0032,132.2843,115.1377,244.9623,0,U,39072,999,50203,3.73E-05,-9.70E-07,0
GLOBALSTAR M093,2013-005B,2023-12-21T11:58:31.672416,12.62278418,0.0001407,51.9802,123.6451,122.965,237.1352,0,U,39073,999,50222,7.31E-05,-9.10E-07,0
GLOBALSTAR M094,2013-005C,2023-12-20T22:40:39.723744,12.62270437,0.0000581,51.9977,39.1738,137.4146,222.6766,0,U,39074,999,50366,7.87E-05,-9.00E-07,0
GLOBALSTAR M096,2013-005D,2023-12-20T13:29:45.111552,12.62267037,0.0001011,52.0082,88.4277,124.8336,235.2626,0,U,39075,999,50251,6.66E-05,-9.20E-07,0
GLOBALSTAR M078,2013-005E,2023-12-20T18:33:37.516896,12.62264718,0.000188,51.9846,173.0349,73.0299,287.0774,0,U,39076,999,50116,3.34E-05,-9.80E-07,0
GLOBALSTAR M095,2013-005F,2023-12-20T19:11:31.205472,12.62272101,0.0001821,51.9771,170.4216,90.9717,269.1358,0,U,39077,999,50102,7.92E-05,-9.00E-07,0
AMAZONAS 3,2013-006A,2023-12-20T23:33:42.615936,1.00270478,0.0004769,0.0419,177.351,70.7717,133.6215,0,U,39078,999,3985,0,-2.72E-06,0
AZERSPACE 1,2013-006B,2023-12-21T02:27:36.048384,1.00270389,0.0001274,0.0193,59.4,216.9316,255.9613,0,U,39079,999,3981,0,1.43E-06,0
LANDSAT 8,2013-008A,2023-12-21T11:00:50.709600,14.57111749,0.000131,98.2073,62.8825,86.6478,273.487,0,U,39084,999,57738,1.60E-04,6.75E-06,0
SARAL,2013-009A,2023-12-21T11:06:00.272160,14.32314745,0.0002977,98.5451,178.0742,91.7832,268.3693,0,U,39086,999,56549,1.06E-04,2.44E-06,0
SAPPHIRE,2013-009C,2023-12-21T02:36:13.466016,14.34570167,0.0012471,98.4075,181.6108,77.1027,283.1551,0,U,39088,999,56622,1.02E-04,2.46E-06,0
NEOSSAT,2013-009D,2023-12-20T12:13:28.473312,14.35010081,0.0012328,98.4017,181.5957,78.7945,281.4626,0,U,39089,999,56623,1.29E-04,3.24E-06,0
STRAND-1,2013-009E,2023-12-20T12:00:50.963904,14.35815428,0.0009967,98.3795,182.7374,71.0599,289.1667,0,U,39090,999,56645,1.97E-04,5.29E-06,0
BRITE-AUSTRIA,2013-009F,2023-12-21T11:51:13.250304,14.35633605,0.00115,98.3831,182.9569,74.6963,285.5493,0,U,39091,999,56663,1.51E-04,3.93E-06,0
SBIRS GEO-2 (USA 241),2013-011A,2023-12-21T10:39:12.174624,1.00271264,0.0002378,2.6608,43.4985,224.9059,303.1489,0,U,39120,999,3947,0,-2.49E-06,0
EUTELSAT 117 WEST A,2013-012A,2023-12-20T23:57:50.834592,1.00270961,0.0002974,0.0153,27.4598,241.2666,63.2487,0,U,39122,999,3934,0,-3.00E-08,0
ANIK G1,2013-014A,2023-12-21T09:58:42.839904,1.00259871,0.0002918,0.0357,279.0664,350.7822,222.305,0,U,39127,999,3913,0,-6.20E-07,0
BEESAT-3,2013-015F,2023-12-21T11:13:55.193952,15.99407593,0.0011304,64.836,53.5143,328.6176,31.4314,0,U,39135,999,59155,2.04E-03,1.02E-02,5.12E-04
BEESAT-2,2013-015G,2023-12-21T10:06:51.982272,15.72130218,0.0015519,64.8553,72.527,282.0033,77.9381,0,U,39136,999,59120,1.84E-03,2.52E-03,0
GAOFEN-1,2013-018A,2023-12-21T11:44:44.052864,14.76489218,0.0019049,98.0116,64.5683,312.6758,47.2846,0,U,39150,999,57419,1.86E-04,1.25E-05,0
NEE-01 PEGASO,2013-018B,2023-12-21T07:20:47.771808,14.84120684,0.0014463,98.0218,106.1214,262.2598,97.6974,0,U,39151,999,57543,5.02E-04,4.15E-05,0
COSMOS 2485 [GLONASS-M],2013-019A,2023-12-20T11:42:09.157536,2.13101558,0.0023328,64.9724,104.2408,229.1389,130.6536,0,U,39155,999,8289,0,5.00E-08,0
CHINASAT 11 (ZX 11),2013-020A,2023-12-20T20:38:13.065216,1.00266927,0.0003513,0.0196,4.7546,289.021,202.8567,0,U,39157,999,3878,0,-2.80E-06,0
PROBA-V,2013-021A,2023-12-21T12:07:27.447456,14.23189567,0.0002967,98.3114,6.9607,277.0859,82.9983,0,U,39159,999,55184,8.60E-05,1.54E-06,0
VNREDSAT 1,2013-021B,2023-12-21T10:45:38.433600,14.63101102,0.0001502,98.0214,62.4523,100.257,259.8801,0,U,39160,999,56731,2.27E-04,1.12E-05,0
ESTCUBE 1,2013-021C,2023-12-21T03:27:26.631072,14.75273281,0.001047,97.8529,62.0161,88.9195,271.3214,0,U,39161,999,57072,4.26E-04,2.84E-05,0
EUTELSAT 7B,2013-022A,2023-12-20T21:07:00.629760,1.0026941,0.0004416,0.066,351.6962,328.6789,92.5715,0,U,39163,999,3884,0,5.70E-07,0
NAVSTAR 68 (USA 242),2013-023A,2023-12-19T18:36:34.437312,2.00563973,0.0118789,55.2696,305.8434,41.7812,319.1185,0,U,39166,999,7762,0,-6.40E-07,0
WGS F5 (USA 243),2013-024A,2023-12-21T10:35:04.055424,1.00269269,0.0000438,0.0188,11.1296,256,288.8772,0,U,39168,999,3871,0,-2.74E-06,0
SES-6,2013-026A,2023-12-21T10:38:27.062592,1.00271249,0.0002543,0.0303,317.4836,299.628,311.7502,0,U,39172,999,3860,0,-2.51E-06,0
COSMOS 2486,2013-028A,2023-12-21T11:51:11.497248,14.55188096,0.0010472,97.914,349.0341,335.8954,24.1752,0,U,39177,999,55917,1.12E-04,4.43E-06,0
